{
  "norad_id": 67800,
  "name": "STARLINK-36354",
  "history": [
    {
      "epoch": "2026-03-28T11:38:23.394336Z",
      "apogee_km": 346.09117217369294,
      "perigee_km": 342.14897173641475,
      "latitude_deg": 1.800975365052295e-05,
      "longitude_deg": -85.57874535735712,
      "height_km": 345.31722553610297,
      "semi_major_axis_km": 6722.257071955053,
      "eccentricity": 0.00029322,
      "inclination_deg": 97.2826,
      "raan_deg": 274.9235,
      "arg_perigee_deg": 359.0113,
      "mean_anomaly_deg": 1.1146,
      "mean_motion_rev_day": 15.7517963
    },
    {
      "epoch": "2026-03-29T01:21:42.818112Z",
      "apogee_km": 345.4224421857007,
      "perigee_km": 342.8034536059995,
      "latitude_deg": 4.420735324101321e-05,
      "longitude_deg": 68.62657367330247,
      "height_km": 346.98344330451494,
      "semi_major_axis_km": 6722.24994789585,
      "eccentricity": 0.0001948,
      "inclination_deg": 97.2828,
      "raan_deg": 275.5233,
      "arg_perigee_deg": 76.9936,
      "mean_anomaly_deg": 283.1547,
      "mean_motion_rev_day": 15.75182134
    },
    {
      "epoch": "2026-03-30T03:16:52.327200Z",
      "apogee_km": 345.2271446474342,
      "perigee_km": 343.0477832662191,
      "latitude_deg": -9.770736059288203e-06,
      "longitude_deg": 39.905291811419566,
      "height_km": 346.8395924774116,
      "semi_major_axis_km": 6722.274463956826,
      "eccentricity": 0.0001621,
      "inclination_deg": 97.2825,
      "raan_deg": 276.6561,
      "arg_perigee_deg": 64.8104,
      "mean_anomaly_deg": 295.3329,
      "mean_motion_rev_day": 15.75173517
    },
    {
      "epoch": "2026-03-30T06:19:49.919808Z",
      "apogee_km": 345.00442160323837,
      "perigee_km": 342.81303469586146,
      "latitude_deg": -1.1991275263395632e-05,
      "longitude_deg": -5.82610854545187,
      "height_km": 346.78237416677115,
      "semi_major_axis_km": 6722.04572814955,
      "eccentricity": 0.000163,
      "inclination_deg": 97.2819,
      "raan_deg": 276.7899,
      "arg_perigee_deg": 74.5301,
      "mean_anomaly_deg": 285.6144,
      "mean_motion_rev_day": 15.75253917
    }
  ]
}